[{"OBJECT_NAME":"BREEZE-M DEB","OBJECT_ID":"2015-075H","EPOCH":"2026-03-05T01:16:23.068992","MEAN_MOTION":1.03192077,"ECCENTRICITY":0.0265882,"INCLINATION":8.4065,"RA_OF_ASC_NODE":63.1239,"ARG_OF_PERICENTER":136.6778,"MEAN_ANOMALY":225.5984,"EPHEMERIS_TYPE":0,"CLASSIFICATION_TYPE":"U","NORAD_CAT_ID":41547,"ELEMENT_SET_NO":999,"REV_AT_EPOCH":3820,"BSTAR":0,"MEAN_MOTION_DOT":-2.53e-6,"MEAN_MOTION_DDOT":0},{"OBJECT_NAME":"BREEZE-M DEB","OBJECT_ID":"2015-075J","EPOCH":"2026-03-05T22:23:04.337376","MEAN_MOTION":1.02194546,"ECCENTRICITY":0.03686716,"INCLINATION":8.458,"RA_OF_ASC_NODE":56.9151,"ARG_OF_PERICENTER":133.412,"MEAN_ANOMALY":229.8569,"EPHEMERIS_TYPE":0,"CLASSIFICATION_TYPE":"U","NORAD_CAT_ID":41548,"ELEMENT_SET_NO":999,"REV_AT_EPOCH":3821,"BSTAR":0,"MEAN_MOTION_DOT":-3.18e-6,"MEAN_MOTION_DDOT":0},{"OBJECT_NAME":"THAICOM 8","OBJECT_ID":"2016-031A","EPOCH":"2026-03-07T02:18:42.228576","MEAN_MOTION":1.00272558,"ECCENTRICITY":0.0004041,"INCLINATION":0.0737,"RA_OF_ASC_NODE":50.5383,"ARG_OF_PERICENTER":305.2589,"MEAN_ANOMALY":282.2281,"EPHEMERIS_TYPE":0,"CLASSIFICATION_TYPE":"U","NORAD_CAT_ID":41552,"ELEMENT_SET_NO":999,"REV_AT_EPOCH":3569,"BSTAR":0,"MEAN_MOTION_DOT":-1.24e-6,"MEAN_MOTION_DDOT":0},{"OBJECT_NAME":"INTELSAT 31 (IS-31)","OBJECT_ID":"2016-035A","EPOCH":"2026-03-07T03:06:38.820672","MEAN_MOTION":1.00272564,"ECCENTRICITY":0.0001555,"INCLINATION":0.0323,"RA_OF_ASC_NODE":241.21,"ARG_OF_PERICENTER":348.2276,"MEAN_ANOMALY":247.0087,"EPHEMERIS_TYPE":0,"CLASSIFICATION_TYPE":"U","NORAD_CAT_ID":41581,"ELEMENT_SET_NO":999,"REV_AT_EPOCH":3566,"BSTAR":0,"MEAN_MOTION_DOT":-1.53e-6,"MEAN_MOTION_DDOT":0},{"OBJECT_NAME":"BREEZE-M R/B","OBJECT_ID":"2016-035B","EPOCH":"2026-03-06T21:16:09.547104","MEAN_MOTION":1.12666519,"ECCENTRICITY":0.7907353,"INCLINATION":31.8137,"RA_OF_ASC_NODE":305.0352,"ARG_OF_PERICENTER":132.5663,"MEAN_ANOMALY":328.0135,"EPHEMERIS_TYPE":0,"CLASSIFICATION_TYPE":"U","NORAD_CAT_ID":41582,"ELEMENT_SET_NO":999,"REV_AT_EPOCH":4008,"BSTAR":0,"MEAN_MOTION_DOT":-1.38e-6,"MEAN_MOTION_DDOT":0},{"OBJECT_NAME":"DELTA 4 R/B","OBJECT_ID":"2016-036B","EPOCH":"2026-03-06T20:48:30.955680","MEAN_MOTION":1.04080774,"ECCENTRICITY":0.0229284,"INCLINATION":5.5577,"RA_OF_ASC_NODE":357.8887,"ARG_OF_PERICENTER":253.1514,"MEAN_ANOMALY":104.3617,"EPHEMERIS_TYPE":0,"CLASSIFICATION_TYPE":"U","NORAD_CAT_ID":41585,"ELEMENT_SET_NO":999,"REV_AT_EPOCH":2466,"BSTAR":0,"MEAN_MOTION_DOT":-2.22e-6,"MEAN_MOTION_DDOT":0},{"OBJECT_NAME":"BEIDOU-2 G7","OBJECT_ID":"2016-037A","EPOCH":"2026-03-07T00:45:06.204384","MEAN_MOTION":1.00266382,"ECCENTRICITY":0.0007926,"INCLINATION":1.4681,"RA_OF_ASC_NODE":68.2517,"ARG_OF_PERICENTER":342.9061,"MEAN_ANOMALY":235.3173,"EPHEMERIS_TYPE":0,"CLASSIFICATION_TYPE":"U","NORAD_CAT_ID":41586,"ELEMENT_SET_NO":999,"REV_AT_EPOCH":586,"BSTAR":0,"MEAN_MOTION_DOT":-3.55e-6,"MEAN_MOTION_DDOT":0},{"OBJECT_NAME":"ABS-2A (MONGOLSAT-1)","OBJECT_ID":"2016-038A","EPOCH":"2026-03-07T02:17:34.834848","MEAN_MOTION":1.0027101,"ECCENTRICITY":0.0001782,"INCLINATION":0.0088,"RA_OF_ASC_NODE":149.1536,"ARG_OF_PERICENTER":149.4806,"MEAN_ANOMALY":335.2784,"EPHEMERIS_TYPE":0,"CLASSIFICATION_TYPE":"U","NORAD_CAT_ID":41588,"ELEMENT_SET_NO":999,"REV_AT_EPOCH":3568,"BSTAR":0,"MEAN_MOTION_DOT":-8.6e-7,"MEAN_MOTION_DDOT":0},{"OBJECT_NAME":"EUTELSAT 117 WEST B","OBJECT_ID":"2016-038B","EPOCH":"2026-03-07T03:22:38.728128","MEAN_MOTION":1.00270832,"ECCENTRICITY":4.44e-5,"INCLINATION":0.0167,"RA_OF_ASC_NODE":306.1248,"ARG_OF_PERICENTER":315.0686,"MEAN_ANOMALY":197.3291,"EPHEMERIS_TYPE":0,"CLASSIFICATION_TYPE":"U","NORAD_CAT_ID":41589,"ELEMENT_SET_NO":999,"REV_AT_EPOCH":3564,"BSTAR":0,"MEAN_MOTION_DOT":-1.4e-7,"MEAN_MOTION_DDOT":0},{"OBJECT_NAME":"FALCON 9 R/B","OBJECT_ID":"2016-038C","EPOCH":"2026-03-04T13:07:05.618784","MEAN_MOTION":1.45721471,"ECCENTRICITY":0.79607352,"INCLINATION":23.7897,"RA_OF_ASC_NODE":344.2027,"ARG_OF_PERICENTER":270.2539,"MEAN_ANOMALY":9.7384,"EPHEMERIS_TYPE":0,"CLASSIFICATION_TYPE":"U","NORAD_CAT_ID":41590,"ELEMENT_SET_NO":999,"REV_AT_EPOCH":4454,"BSTAR":0.00022046279,"MEAN_MOTION_DOT":-1.5e-7,"MEAN_MOTION_DDOT":0},{"OBJECT_NAME":"BRISAT","OBJECT_ID":"2016-039A","EPOCH":"2026-03-06T23:13:52.450752","MEAN_MOTION":1.00271588,"ECCENTRICITY":0.0002218,"INCLINATION":0.0181,"RA_OF_ASC_NODE":201.9575,"ARG_OF_PERICENTER":147.7268,"MEAN_ANOMALY":313.9505,"EPHEMERIS_TYPE":0,"CLASSIFICATION_TYPE":"U","NORAD_CAT_ID":41591,"ELEMENT_SET_NO":999,"REV_AT_EPOCH":3558,"BSTAR":0,"MEAN_MOTION_DOT":-1.99e-6,"MEAN_MOTION_DDOT":0},{"OBJECT_NAME":"ECHOSTAR 18","OBJECT_ID":"2016-039B","EPOCH":"2026-03-07T03:21:28.707840","MEAN_MOTION":1.00272812,"ECCENTRICITY":0.0001514,"INCLINATION":0.0202,"RA_OF_ASC_NODE":142.3789,"ARG_OF_PERICENTER":205.7181,"MEAN_ANOMALY":165.7618,"EPHEMERIS_TYPE":0,"CLASSIFICATION_TYPE":"U","NORAD_CAT_ID":41592,"ELEMENT_SET_NO":999,"REV_AT_EPOCH":3560,"BSTAR":0,"MEAN_MOTION_DOT":-2.84e-6,"MEAN_MOTION_DDOT":0},{"OBJECT_NAME":"MUOS-5","OBJECT_ID":"2016-041A","EPOCH":"2026-03-07T03:14:38.527296","MEAN_MOTION":1.00272822,"ECCENTRICITY":0.0195061,"INCLINATION":2.4256,"RA_OF_ASC_NODE":299.8571,"ARG_OF_PERICENTER":262.6516,"MEAN_ANOMALY":265.9278,"EPHEMERIS_TYPE":0,"CLASSIFICATION_TYPE":"U","NORAD_CAT_ID":41622,"ELEMENT_SET_NO":999,"REV_AT_EPOCH":3606,"BSTAR":0,"MEAN_MOTION_DOT":-1.6e-6,"MEAN_MOTION_DDOT":0},{"OBJECT_NAME":"TIANTONG-1 1","OBJECT_ID":"2016-048A","EPOCH":"2026-03-07T03:15:38.893248","MEAN_MOTION":1.00271298,"ECCENTRICITY":0.0005916,"INCLINATION":3.6553,"RA_OF_ASC_NODE":42.4601,"ARG_OF_PERICENTER":357.0166,"MEAN_ANOMALY":275.694,"EPHEMERIS_TYPE":0,"CLASSIFICATION_TYPE":"U","NORAD_CAT_ID":41725,"ELEMENT_SET_NO":999,"REV_AT_EPOCH":3524,"BSTAR":0,"MEAN_MOTION_DOT":-3.19e-6,"MEAN_MOTION_DDOT":0},{"OBJECT_NAME":"JCSAT-16","OBJECT_ID":"2016-050A","EPOCH":"2026-03-06T21:29:20.947776","MEAN_MOTION":1.00271298,"ECCENTRICITY":8.06e-5,"INCLINATION":0.0193,"RA_OF_ASC_NODE":150.2015,"ARG_OF_PERICENTER":219.7174,"MEAN_ANOMALY":260.9582,"EPHEMERIS_TYPE":0,"CLASSIFICATION_TYPE":"U","NORAD_CAT_ID":41729,"ELEMENT_SET_NO":999,"REV_AT_EPOCH":3504,"BSTAR":0,"MEAN_MOTION_DOT":-2.54e-6,"MEAN_MOTION_DDOT":0},{"OBJECT_NAME":"USA 270","OBJECT_ID":"2016-052A","EPOCH":"2026-02-20T16:59:52.340352","MEAN_MOTION":1.00327485,"ECCENTRICITY":0.0003302,"INCLINATION":3.8986,"RA_OF_ASC_NODE":78.691,"ARG_OF_PERICENTER":288.5278,"MEAN_ANOMALY":204.8551,"EPHEMERIS_TYPE":0,"CLASSIFICATION_TYPE":"U","NORAD_CAT_ID":41744,"ELEMENT_SET_NO":999,"REV_AT_EPOCH":2696,"BSTAR":0,"MEAN_MOTION_DOT":-3.6e-7,"MEAN_MOTION_DDOT":0},{"OBJECT_NAME":"USA 271","OBJECT_ID":"2016-052B","EPOCH":"2026-02-20T19:31:41.902752","MEAN_MOTION":1.00119522,"ECCENTRICITY":0.0001639,"INCLINATION":3.8712,"RA_OF_ASC_NODE":78.7558,"ARG_OF_PERICENTER":331.9763,"MEAN_ANOMALY":161.1961,"EPHEMERIS_TYPE":0,"CLASSIFICATION_TYPE":"U","NORAD_CAT_ID":41745,"ELEMENT_SET_NO":999,"REV_AT_EPOCH":2675,"BSTAR":0,"MEAN_MOTION_DOT":-3.46e-6,"MEAN_MOTION_DDOT":0}]
