BREEZE-M DEB            
1 41547U 15075H   26064.05304478 -.00000253  00000+0  00000+0 0  9997
2 41547   8.4065  63.1239 0265882 136.6778 225.5984  1.03192077 38207
BREEZE-M DEB            
1 41548U 15075J   26064.93268909 -.00000318  00000+0  00000+0 0  9995
2 41548   8.4580  56.9151 0368671 133.4120 229.8569  1.02194546 38218
THAICOM 8               
1 41552U 16031A   26066.09632209 -.00000124  00000+0  00000+0 0  9995
2 41552   0.0737  50.5383 0004041 305.2589 282.2281  1.00272558 35699
INTELSAT 31 (IS-31)     
1 41581U 16035A   26066.12961598 -.00000153  00000+0  00000+0 0  9993
2 41581   0.0323 241.2100 0001555 348.2276 247.0087  1.00272564 35662
BREEZE-M R/B            
1 41582U 16035B   26065.88622161 -.00000138  00000+0  00000+0 0  9999
2 41582  31.8137 305.0352 7907353 132.5663 328.0135  1.12666519 40084
DELTA 4 R/B             
1 41585U 16036B   26065.86702495 -.00000222  00000+0  00000+0 0  9994
2 41585   5.5577 357.8887 0229284 253.1514 104.3617  1.04080774 24669
BEIDOU-2 G7             
1 41586U 16037A   26066.03132181 -.00000355  00000+0  00000+0 0  9992
2 41586   1.4681  68.2517 0007926 342.9061 235.3173  1.00266382  5865
ABS-2A (MONGOLSAT-1)    
1 41588U 16038A   26066.09554207 -.00000086  00000+0  00000+0 0  9999
2 41588   0.0088 149.1536 0001782 149.4806 335.2784  1.00271010 35689
EUTELSAT 117 WEST B     
1 41589U 16038B   26066.14072602 -.00000014  00000+0  00000+0 0  9991
2 41589   0.0167 306.1248 0000444 315.0686 197.3291  1.00270832 35641
FALCON 9 R/B            
1 41590U 16038C   26063.54659281 -.00000015  00000+0  22046-3 0  9997
2 41590  23.7897 344.2027 7960735 270.2539   9.7384  1.45721471 44544
BRISAT                  
1 41591U 16039A   26065.96796818 -.00000199  00000+0  00000+0 0  9990
2 41591   0.0181 201.9575 0002218 147.7268 313.9505  1.00271588 35588
ECHOSTAR 18             
1 41592U 16039B   26066.13991560 -.00000284  00000+0  00000+0 0  9997
2 41592   0.0202 142.3789 0001514 205.7181 165.7618  1.00272812 35607
MUOS-5                  
1 41622U 16041A   26066.13516814 -.00000160  00000+0  00000+0 0  9992
2 41622   2.4256 299.8571 0195061 262.6516 265.9278  1.00272822 36065
TIANTONG-1 1            
1 41725U 16048A   26066.13586682 -.00000319  00000+0  00000+0 0  9999
2 41725   3.6553  42.4601 0005916 357.0166 275.6940  1.00271298 35246
JCSAT-16                
1 41729U 16050A   26065.89538134 -.00000254  00000+0  00000+0 0  9995
2 41729   0.0193 150.2015 0000806 219.7174 260.9582  1.00271298 35041
USA 270                 
1 41744U 16052A   26051.70824468 -.00000036  00000+0  00000+0 0  9995
2 41744   3.8986  78.6910 0003302 288.5278 204.8551  1.00327485 26963
USA 271                 
1 41745U 16052B   26051.81367943 -.00000346  00000+0  00000+0 0  9992
2 41745   3.8712  78.7558 0001639 331.9763 161.1961  1.00119522 26751
